NORAD_CAT_ID,OBJECT_NAME,OBJECT_TYPE,EPOCH,MEAN_MOTION,ECCENTRICITY,INCLINATION,RA_OF_ASC_NODE,ARG_OF_PERICENTER,MEAN_ANOMALY,BSTAR,MEAN_MOTION_DOT,MEAN_MOTION_DDOT,TLE_LINE0,TLE_LINE1,TLE_LINE2,SEMIMAJOR_AXIS,PERIOD,APOGEE,PERIGEE,DECAYED
51810.0,STARLINK-3613,PAYLOAD,2024-03-02 03:39:51,15.08833922,0.0001587,53.2183,40.2717,99.7232,260.394,0.00011196,1.494e-05,0.0,0 STARLINK-3613,1 51810U 22017AU  24062.15267816  .00001494  00000-0  11196-3 0  9996,2 51810  53.2183  40.2717 0001587  99.7232 260.3940 15.08833922112855,6917.899,95.438,540.862,538.666,0.0
51810.0,STARLINK-3613,PAYLOAD,2024-03-02 05:15:14,15.08843188,0.0001604,53.2185,39.9744,99.5613,260.556,7.8298e-06,-1.63e-06,0.0,0 STARLINK-3613,1 51810U 22017AU  24062.21891532 -.00000163  00000-0  78298-5 0  9992,2 51810  53.2185  39.9744 0001604  99.5613 260.5560 15.08843188112746,6917.871,95.437,540.845,538.626,0.0
51810.0,STARLINK-3613,PAYLOAD,2024-03-03 03:30:38,15.08834349,0.0001615,53.219,35.812,100.4671,259.6503,-2.8762e-05,-7.46e-06,0.0,0 STARLINK-3613,1 51810U 22017AU  24063.14628321 -.00000746  00000-0 -28762-4 0  9997,2 51810  53.2190  35.8120 0001615 100.4671 259.6503 15.08834349113008,6917.898,95.438,540.88,538.645,0.0
51810.0,STARLINK-3613,PAYLOAD,2024-03-03 08:16:48,15.08838671,0.0001385,53.2173,34.9206,88.9319,271.1832,-1.4177e-06,-3.1e-06,0.0,0 STARLINK-3613,1 51810U 22017AU  24063.34500055 -.00000310  00000-0 -14177-5 0  9995,2 51810  53.2173  34.9206 0001385  88.9319 271.1832 15.08838671112912,6917.884,95.438,540.708,538.791,0.0
51810.0,STARLINK-3613,PAYLOAD,2024-03-04 03:21:25,15.08843052,0.0001324,53.2181,31.3525,85.0723,275.042,3.2344e-05,2.27e-06,0.0,0 STARLINK-3613,1 51810U 22017AU  24064.13987774  .00000227  00000-0  32344-4 0  9990,2 51810  53.2181  31.3525 0001324  85.0723 275.0420 15.08843052113158,6917.871,95.437,540.652,538.82,0.0
51810.0,STARLINK-3613,PAYLOAD,2024-03-04 04:56:47,15.0885261,0.0001552,53.2189,31.0595,107.841,252.2751,0.00015297,2.148e-05,0.0,0 STARLINK-3613,1 51810U 22017AU  24064.20610778  .00002148  00000-0  15297-3 0  9996,2 51810  53.2189  31.0595 0001552 107.8410 252.2751 15.08852610113164,6917.842,95.437,540.78,538.633,0.0
51810.0,STARLINK-3613,PAYLOAD,2024-03-04 14:29:07,15.08841037,0.0001412,53.2191,29.2706,90.3773,269.7381,8.7807e-05,1.11e-05,0.0,0 STARLINK-3613,1 51810U 22017AU  24064.60355537  .00001110  00000-0  87807-4 0  9994,2 51810  53.2191  29.2706 0001412  90.3773 269.7381 15.08841037113223,6917.877,95.437,540.719,538.765,0.0
51810.0,STARLINK-3613,PAYLOAD,2024-03-05 03:12:14,15.08819766,0.0001441,53.2176,26.8904,69.8589,290.2558,-0.00011076,-2.049e-05,0.0,0 STARLINK-3613,1 51810U 22017AU  24065.13350059 -.00002049  00000-0 -11076-3 0  9995,2 51810  53.2176  26.8904 0001441  69.8589 290.2558 15.08819766113305,6917.942,95.439,540.804,538.81,0.0
51810.0,STARLINK-3613,PAYLOAD,2024-03-05 07:58:23,15.08825565,0.0001676,53.2201,25.999,74.6254,285.4923,-3.479e-05,-8.41e-06,0.0,0 STARLINK-3613,1 51810U 22017AU  24065.33221700 -.00000841  00000-0 -34790-4 0  9994,2 51810  53.2201  25.9990 0001676  74.6254 285.4923 15.08825565113218,6917.925,95.438,540.949,538.63,0.0
51810.0,STARLINK-3613,PAYLOAD,2024-03-05 20:41:29,15.08824959,0.0001739,53.2208,23.6198,74.0201,286.0983,-2.9332e-05,-7.55e-06,0.0,0 STARLINK-3613,1 51810U 22017AU  24065.86214237 -.00000755  00000-0 -29332-4 0  9999,2 51810  53.2208  23.6198 0001739  74.0201 286.0983 15.08824959113417,6917.926,95.439,540.994,538.588,0.0
51810.0,STARLINK-3613,PAYLOAD,2024-03-06 03:02:59,15.08854307,0.0001735,53.2189,22.4353,83.4498,276.6692,2.6372e-05,1.32e-06,0.0,0 STARLINK-3613,1 51810U 22017AU  24066.12707782  .00000132  00000-0  26372-4 0  9999,2 51810  53.2189  22.4353 0001735  83.4498 276.6692 15.08854307113459,6917.837,95.437,540.902,538.501,0.0
51810.0,STARLINK-3613,PAYLOAD,2024-03-06 04:38:22,15.08857124,0.0001709,53.2189,22.138,87.193,272.9258,5.163e-05,5.34e-06,0.0,0 STARLINK-3613,1 51810U 22017AU  24066.19331466  .00000534  00000-0  51630-4 0  9999,2 51810  53.2189  22.1380 0001709  87.1930 272.9258 15.08857124113344,6917.828,95.436,540.875,538.511,0.0
51810.0,STARLINK-3613,PAYLOAD,2024-03-07 02:53:47,15.08829173,0.0001423,53.2181,17.9732,96.734,263.3815,0.00014237,1.978e-05,0.0,0 STARLINK-3613,1 51810U 22017AU  24067.12068913  .00001978  00000-0  14237-3 0  9991,2 51810  53.2181  17.9732 0001423  96.7340 263.3815 15.08829173113608,6917.913,95.438,540.763,538.794,0.0
51810.0,STARLINK-3613,PAYLOAD,2024-03-07 14:01:28,15.08845381,0.0001275,53.2182,15.8901,89.815,270.2989,0.00013418,1.849e-05,0.0,0 STARLINK-3613,1 51810U 22017AU  24067.58435942  .00001849  00000-0  13418-3 0  9998,2 51810  53.2182  15.8901 0001275  89.8150 270.2989 15.08845381113553,6917.864,95.437,540.611,538.847,0.0
51810.0,STARLINK-3613,PAYLOAD,2024-03-08 01:09:11,15.08845819,0.0001309,53.2189,13.8081,93.702,266.4122,-0.0001308,-2.369e-05,0.0,0 STARLINK-3613,1 51810U 22017AU  24068.04804477 -.00002369  00000-0 -13080-3 0  9998,2 51810  53.2189  13.8081 0001309  93.7020 266.4122 15.08845819113748,6917.863,95.437,540.633,538.822,0.0
51810.0,STARLINK-3613,PAYLOAD,2024-03-08 05:55:19,15.08853453,0.0001825,53.22,12.9122,125.5503,234.5659,-0.00010152,-1.904e-05,0.0,0 STARLINK-3613,1 51810U 22017AU  24068.24675780 -.00001904  00000-0 -10152-3 0  9994,2 51810  53.2200  12.9122 0001825 125.5503 234.5659 15.08853453113778,6917.839,95.437,540.967,538.442,0.0
51810.0,STARLINK-3613,PAYLOAD,2024-03-08 13:52:15,15.08853109,0.0001769,53.2207,11.4247,116.0692,244.0482,-4.2152e-05,-9.59e-06,0.0,0 STARLINK-3613,1 51810U 22017AU  24068.57795482 -.00000959  00000-0 -42152-4 0  9997,2 51810  53.2207  11.4247 0001769 116.0692 244.0482 15.08853109113709,6917.84,95.437,540.929,538.482,0.0
51810.0,STARLINK-3613,PAYLOAD,2024-03-09 02:35:21,15.08837565,0.0001419,53.2191,9.0494,97.8721,262.2432,3.9254e-05,3.37e-06,0.0,0 STARLINK-3613,1 51810U 22017AU  24069.10788529  .00000337  00000-0  39254-4 0  9998,2 51810  53.2191   9.0494 0001419  97.8721 262.2432 15.08837565113906,6917.888,95.438,540.734,538.771,0.0
51810.0,STARLINK-3613,PAYLOAD,2024-03-09 05:46:07,15.08834503,0.0001557,53.2177,8.4551,97.1045,263.0124,4.3739e-05,4.08e-06,0.0,0 STARLINK-3613,1 51810U 22017AU  24069.24036753  .00000408  00000-0  43739-4 0  9990,2 51810  53.2177   8.4551 0001557  97.1045 263.0124 15.08834503113807,6917.897,95.438,540.839,538.685,0.0
51810.0,STARLINK-3613,PAYLOAD,2024-03-10 11:58:26,15.08851246,0.0001521,53.2201,2.8065,83.8611,276.2554,8.0538e-05,9.94e-06,0.0,0 STARLINK-3613,1 51810U 22017AU  24070.49891573  .00000994  00000-0  80538-4 0  9996,2 51810  53.2201   2.8065 0001521  83.8611 276.2554 15.08851246114116,6917.846,95.437,540.763,538.659,0.0
51810.0,STARLINK-3613,PAYLOAD,2024-03-10 19:55:24,15.08817791,0.0001323,53.2174,1.3185,85.3054,274.8089,-5.0027e-05,-1.083e-05,0.0,0 STARLINK-3613,1 51810U 22017AU  24070.83014114 -.00001083  00000-0 -50027-4 0  9994,2 51810  53.2174   1.3185 0001323  85.3054 274.8089 15.08817791114169,6917.948,95.439,540.729,538.898,0.0
51810.0,STARLINK-3613,PAYLOAD,2024-03-11 02:16:55,15.0883173,0.0001391,53.2177,0.1293,84.2581,275.857,6.9323e-05,8.15e-06,0.0,0 STARLINK-3613,1 51810U 22017AU  24071.09509138  .00000815  00000-0  69323-4 0  9997,2 51810  53.2177   0.1293 0001391  84.2581 275.8570 15.08831730114207,6917.906,95.438,540.733,538.808,0.0
51810.0,STARLINK-3613,PAYLOAD,2024-03-11 11:49:14,15.0884445,0.0001541,53.2199,358.348,92.3052,267.8116,7.5795e-05,9.19e-06,0.0,0 STARLINK-3613,1 51810U 22017AU  24071.49252378  .00000919  00000-0  75795-4 0  9997,2 51810  53.2199 358.3480 0001541  92.3052 267.8116 15.08844450114263,6917.867,95.437,540.798,538.666,0.0
51810.0,STARLINK-3613,PAYLOAD,2024-03-11 19:46:10,15.08834926,0.0001853,53.22,356.8642,101.8027,258.3173,1.0738e-05,-1.17e-06,0.0,0 STARLINK-3613,1 51810U 22017AU  24071.82373386 -.00000117  00000-0  10738-4 0  9994,2 51810  53.2200 356.8642 0001853 101.8027 258.3173 15.08834926114314,6917.896,95.438,541.043,538.479,0.0
51810.0,STARLINK-3613,PAYLOAD,2024-03-12 03:43:06,15.08836901,0.0001528,53.2201,355.3743,87.14,272.9767,-2.8142e-05,-7.36e-06,0.0,0 STARLINK-3613,1 51810U 22017AU  24072.15493476 -.00000736  00000-0 -28142-4 0  9990,2 51810  53.2201 355.3743 0001528  87.1400 272.9767 15.08836901114249,6917.89,95.438,540.812,538.698,0.0
51810.0,STARLINK-3613,PAYLOAD,2024-03-13 01:58:32,15.08819139,0.0001487,53.2189,351.2109,76.5467,283.5691,-1.4624e-05,-5.21e-06,0.0,0 STARLINK-3613,1 51810U 22017AU  24073.08231688 -.00000521  00000-0 -14624-4 0  9990,2 51810  53.2189 351.2109 0001487  76.5467 283.5691 15.08819139114501,6917.944,95.439,540.838,538.78,0.0
51810.0,STARLINK-3613,PAYLOAD,2024-03-13 11:30:49,15.0884602,0.0001335,53.2187,349.4264,89.0453,271.0692,0.0001261,1.72e-05,0.0,0 STARLINK-3613,1 51810U 22017AU  24073.47973820  .00001720  00000-0  12610-3 0  9996,2 51810  53.2187 349.4264 0001335  89.0453 271.0692 15.08846020114564,6917.862,95.437,540.651,538.803,0.0
51810.0,STARLINK-3613,PAYLOAD,2024-03-13 22:38:31,15.08841091,0.0001334,53.2181,347.3453,86.8278,273.2867,0.00024202,3.566e-05,0.0,0 STARLINK-3613,1 51810U 22017AU  24073.94341908  .00003566  00000-0  24202-3 0  9994,2 51810  53.2181 347.3453 0001334  86.8278 273.2867 15.08841091114510,6917.877,95.437,540.665,538.819,0.0
51810.0,STARLINK-3613,PAYLOAD,2024-03-14 03:24:39,15.08857093,0.0001203,53.2179,346.4509,95.4871,264.6259,0.00026291,3.901e-05,0.0,0 STARLINK-3613,1 51810U 22017AU  24074.14212449  .00003901  00000-0  26291-3 0  9997,2 51810  53.2179 346.4509 0001203  95.4871 264.6259 15.08857093114663,6917.828,95.436,540.525,538.861,0.0
51810.0,STARLINK-3613,PAYLOAD,2024-03-14 22:29:17,15.08855963,0.000162,53.218,342.8845,112.417,247.6994,7.8314e-05,9.59e-06,0.0,0 STARLINK-3613,1 51810U 22017AU  24074.93701227  .00000959  00000-0  78314-4 0  9995,2 51810  53.2180 342.8845 0001620 112.4170 247.6994 15.08855963114664,6917.832,95.437,540.817,538.576,0.0
